COSMOS 2419 (714)       
1 28915U 05050A   16332.79655554 -.00000049  00000-0  00000+0 0  9999
2 28915  65.3995  72.6437 0014241 355.1199  21.5007  2.13106404 85041
COSMOS 2425 (716)       
1 29670U 06062A   16332.71752608 -.00000040  00000-0  10000-3 0  9998
2 29670  65.5598 311.6529 0021718 337.8615  33.6933  2.13104926 77248
COSMOS 2426 (717)       
1 29671U 06062B   16333.13764212 -.00000040  00000-0  10000-3 0  9990
2 29671  65.5776 311.7238 0017196 174.8265  18.7652  2.13103047 77256
COSMOS 2424 (715)       
1 29672U 06062C   16333.12344127 -.00000040  00000-0  10000-3 0  9999
2 29672  65.5614 311.6491 0016491 174.0011 184.6136  2.13102127 77243
COSMOS 2433 (720)       
1 32275U 07052A   16332.61024046 -.00000050  00000-0  10000-3 0  9991
2 32275  65.4138  72.4236 0002357 227.3744 254.0225  2.13104900 70757
COSMOS 2432 (719)       
1 32276U 07052B   16332.58204848 -.00000050  00000-0  10000-3 0  9998
2 32276  65.4261  72.4938 0009965 337.5097  75.6696  2.13104048 70753
COSMOS 2434 (721)       
1 32393U 07065A   16332.59464674 -.00000042  00000-0  00000+0 0  9994
2 32393  65.1767 310.9030 0001727 149.6985 210.5762  2.13102558 69464
COSMOS 2436 (723)       
1 32395U 07065C   16333.54160755 -.00000040  00000-0  10000-3 0  9998
2 32395  65.1978 310.9080 0031456  31.0415  59.8875  2.12349652 69410
COSMOS 2443 (725)       
1 33379U 08046B   16332.92441132 -.00000048  00000-0  00000-0 0  9997
2 33379  65.3436  71.8152 0017102 182.7928  82.5229  2.13100665 63614
COSMOS 2456 (730)       
1 36111U 09070A   16332.75773416  .00000088  00000-0  00000+0 0  9998
2 36111  64.1783 190.4660 0003626 335.3534 320.3436  2.13102963 54122
COSMOS 2457 (733)       
1 36112U 09070B   16333.16819765  .00000089  00000-0  00000+0 0  9994
2 36112  64.1604 190.3757 0006939 153.0339 227.0587  2.13101690 54147
COSMOS 2458 (734)       
1 36113U 09070C   16332.82226914  .00000089  00000-0  10000-3 0  9990
2 36113  64.1657 190.3942 0002312  50.3178 112.0538  2.13101891 54134
COSMOS 2459 (731)       
1 36400U 10007A   16332.67472545 -.00000051  00000-0  10000-3 0  9997
2 36400  65.3231  71.5523 0026334 354.1569  40.5949  2.13102156 52480
COSMOS 2461 (735)       
1 36401U 10007B   16333.38320277 -.00000045  00000-0  10000-3 0  9994
2 36401  65.3171  71.5085 0006778  82.9701  45.9005  2.13102149 52496
COSMOS 2460 (732)       
1 36402U 10007C   16333.24572554 -.00000046  00000-0  10000-3 0  9998
2 36402  65.3064  71.4878 0001447 148.8796 276.1215  2.13101838 52496
COSMOS 2465 (737)       
1 37138U 10041B   16332.75577005 -.00000043  00000-0  00000+0 0  9996
2 37138  64.7771 310.9861 0035479 176.0880 351.1137  2.13103372 48557
COSMOS 2464 (736)       
1 37139U 10041C   16333.06797524 -.00000042  00000-0  00000+0 0  9991
2 37139  64.7839 310.9730 0021968   5.2214 225.8884  2.13102587 48564
COSMOS 2471 (701K)      
1 37372U 11009A   16332.61926656 -.00000051  00000-0  00000-0 0  9996
2 37372  65.3033  71.4570 0008096 226.2251 211.3174  2.13102800 44757
COSMOS 2474 (742)       
1 37829U 11055A   16333.40625086  .00000089  00000-0  00000+0 0  9994
2 37829  64.5023 190.9251 0006584 247.1018  46.7888  2.13101919 40130
COSMOS 2476 (744)       
1 37867U 11064A   16332.74149854  .00000088  00000-0  00000+0 0  9995
2 37867  64.4821 191.0250 0015772 243.2014 306.5939  2.13101958 39472
COSMOS 2477 (745)       
1 37868U 11064B   16332.83470603  .00000088  00000-0  00000+0 0  9995
2 37868  64.4918 191.0634 0013793 244.3233 196.2267  2.13101914 39438
COSMOS 2475 (743)       
1 37869U 11064C   16333.47418516  .00000089  00000-0  00000+0 0  9993
2 37869  64.4974 191.0311 0018786 274.2751 253.1435  2.13102168 39451
COSMOS 2485 (747)       
1 39155U 13019A   16332.61243039  .00000088  00000-0  00000-0 0  9996
2 39155  64.6517 191.0147 0016158 237.4725 258.4087  2.13102064 27943
COSMOS 2492 (754)       
1 39620U 14012A   16333.04108214 -.00000048  00000-0  10000-3 0  9991
2 39620  65.1960  71.4591 0013800 330.9885 167.4004  2.13103504 20906
COSMOS 2500 (755)       
1 40001U 14032A   16333.16990749 -.00000047  00000-0  00000+0 0  9997
2 40001  65.1360  71.4672 0006992 195.5630 265.1109  2.13102788 19129
COSMOS 2501 (702K)      
1 40315U 14075A   16332.59905102 -.00000043  00000-0  00000+0 0  9993
2 40315  64.5102 312.4018 0016067 215.7602 335.2575  2.13099835 15517
COSMOS 2514 (751)       
1 41330U 16008A   16333.42284953 -.00000045  00000-0  00000+0 0  9998
2 41330  64.9368  71.6537 0009993 208.3194 265.8676  2.13103383  6296
COSMOS 2516 (753)       
1 41554U 16032A   16332.73138339 -.00000042  00000-0  00000+0 0  9999
2 41554  64.7296 312.1059 0013881 230.7650 326.7141  2.13101601  3888
